COSMOS 2251 DEB         
1 35825U 93036ASX 26058.54971276  .00002131  00000+0  15526-2 0  9993
2 35825  74.1141  16.3240 0349238  94.1717 269.9389 13.71298576835615
COSMOS 2251 DEB         
1 35829U 93036ATB 26061.64398106  .00011869  00000+0  16177-2 0  9998
2 35829  74.0247 301.9249 0005976 329.6111  30.4717 14.78735780889558
COSMOS 2251 DEB         
1 35830U 93036ATC 26053.88929042  .00003691  00000+0  14852-2 0  9998
2 35830  73.8599 135.0607 0117107  88.6134 272.8423 14.24746336622919
COSMOS 2251 DEB         
1 35834U 93036ATG 26045.44882601  .00000757  00000+0  39579-3 0  9998
2 35834  73.9321 191.1646 0110391 337.4851  82.1902 14.13041554671637
COSMOS 2251 DEB         
1 35835U 93036ATH 26060.86188423  .00002096  00000+0  13823-2 0  9994
2 35835  74.0635 135.3723 0295683 259.1296  97.6430 13.83193433627936
COSMOS 2251 DEB         
1 35836U 93036ATJ 26062.28590271  .00016550  00000+0  25518-2 0  9995
2 35836  74.0344  16.1931 0019173  52.9682 307.3241 14.73266199647053
COSMOS 2251 DEB         
1 35837U 93036ATK 26062.02121602  .00008088  00000+0  56265-2 0  9996
2 35837  73.7296  73.9806 0415557 341.4279  45.6939 13.64311987590713
COSMOS 2251 DEB         
1 35840U 93036ATN 26054.28896936  .00007159  00000+0  21549-2 0  9993
2 35840  73.9336  23.6100 0118299 269.9292  88.8306 14.38758394863343
COSMOS 2251 DEB         
1 35883U 93036ATW 26045.05966612  .00001122  00000+0  28014-3 0  9993
2 35883  74.0248 310.8888 0081984  63.4989 357.8793 14.50773681633049
COSMOS 2251 DEB         
1 35884U 93036ATX 26045.84938336  .00002306  00000+0  91070-3 0  9990
2 35884  73.9877 219.8695 0111884 351.2575   8.6619 14.26226388232719
COSMOS 2251 DEB         
1 35885U 93036ATY 26062.55846028  .00000968  00000+0  32966-3 0  9995
2 35885  74.0285 145.9747 0024458 214.0131 145.9456 14.37689676661777
COSMOS 2251 DEB         
1 35888U 93036AUB 26058.11779415  .00001776  00000+0  38082-3 0  9993
2 35888  74.0315 211.2374 0050361 322.2784  37.4853 14.58661715873874
COSMOS 2251 DEB         
1 35890U 93036AUD 26055.79592786  .00005439  00000+0  11440-2 0  9999
2 35890  73.9365 100.9469 0055694 215.1733 144.5751 14.58817255662300
COSMOS 2251 DEB         
1 35891U 93036AUE 26063.57604179  .00073659  00000+0  16569-2 0  9991
2 35891  73.9833 277.1576 0034620  25.5456 334.7453 15.42335383684787
COSMOS 2251 DEB         
1 35898U 93036AUM 26061.91805965  .00009242  00000+0  76926-3 0  9991
2 35898  73.9913 135.1875 0081180 259.5786 224.0905 14.96203140680081
COSMOS 2251 DEB         
1 35901U 93036AUQ 26062.41284500  .00119078  00000+0  53748-2 0  9993
2 35901  74.0063 215.2278 0001792 345.5252  40.7842 15.20399634873478
